[{"OBJECT_NAME":"STARLINK-5893","OBJECT_ID":"2023-037AQ","EPOCH":"2026-03-09T21:53:15.441792","MEAN_MOTION":14.98316612,"ECCENTRICITY":0.00025518,"INCLINATION":69.9981,"RA_OF_ASC_NODE":264.0104,"ARG_OF_PERICENTER":278.3989,"MEAN_ANOMALY":81.688,"EPHEMERIS_TYPE":0,"CLASSIFICATION_TYPE":"U","NORAD_CAT_ID":55952,"ELEMENT_SET_NO":999,"REV_AT_EPOCH":16450,"BSTAR":4.7600036e-5,"MEAN_MOTION_DOT":4.75e-6,"MEAN_MOTION_DDOT":0},{"OBJECT_NAME":"CZ-2C DEB","OBJECT_ID":"2013-035D","EPOCH":"2026-03-09T23:34:49.287360","MEAN_MOTION":14.88810695,"ECCENTRICITY":0.00555667,"INCLINATION":97.8149,"RA_OF_ASC_NODE":69.2801,"ARG_OF_PERICENTER":125.3803,"MEAN_ANOMALY":235.2624,"EPHEMERIS_TYPE":0,"CLASSIFICATION_TYPE":"U","NORAD_CAT_ID":39205,"ELEMENT_SET_NO":999,"REV_AT_EPOCH":67351,"BSTAR":0.0012724881,"MEAN_MOTION_DOT":0.0001222,"MEAN_MOTION_DDOT":0}]
